{
  "norad_id": 51815,
  "name": "STARLINK-3604",
  "history": [
    {
      "epoch": "2026-03-28T17:02:19.521888Z",
      "apogee_km": 540.5652136158424,
      "perigee_km": 538.8798846724803,
      "latitude_deg": -5.1609782001538916e-05,
      "longitude_deg": 162.02792772634476,
      "height_km": 540.5934373032219,
      "semi_major_axis_km": 6917.859549144161,
      "eccentricity": 0.00012181,
      "inclination_deg": 53.2166,
      "raan_deg": 243.7358,
      "arg_perigee_deg": 88.304,
      "mean_anomaly_deg": 271.8091,
      "mean_motion_rev_day": 15.08846818
    }
  ]
}